package org.kwansystems.space.ephemeris.earth;

import org.kwansystems.tools.time.*;
import org.kwansystems.tools.vector.*;

public class GPS {
  public static void main(String[] args) {
    Time T=new Time(2006,6,7,18-4,15,00,TimeUnits.Seconds,TimeScale.UTC,TimeEpoch.Java);
    String[] TLE= new String[] {
    	"GPS BIIA-16 (PRN 01)    ",
    	"1 22231U 92079A   06159.75263502 -.00000072  00000-0  10000-3 0  8205",
    	"2 22231  56.6044  24.7761 0063523 261.5076  97.8286  2.00562026 99247",
    	"GPS BIIR-13 (PRN 02)    ",
    	"1 28474U 04045A   06160.34156820 -.00000012  00000-0  10000-3 0  6322",
    	"2 28474  54.4355 262.3418 0088251 119.3290 241.5831  2.00562057 11753",
    	"GPS BIIA-25 (PRN 03)    ",
    	"1 23833U 96019A   06160.01631467  .00000101  00000-0  10000-3 0  7708",
    	"2 23833  53.0683 197.2438 0079203  36.7330 323.8925  2.00561675 74761",
    	"GPS BIIA-23 (PRN 04)    ",
    	"1 22877U 93068A   06159.30331517 -.00000025  00000-0  10000-3 0  5365",
    	"2 22877  54.4102 263.5124 0072960   7.4296 352.6983  2.00572266 92466",
    	"GPS BIIA-22 (PRN 05)    ",
    	"1 22779U 93054A   06159.25369711  .00000075  00000-0  10000-3 0  7133",
    	"2 22779  53.7480 137.8115 0067664  59.4275 301.2301  2.00572781 93579",
    	"GPS BIIA-24 (PRN 06)    ",
    	"1 23027U 94016A   06159.38316420  .00000095  00000-0  10000-3 0  5468",
    	"2 23027  53.4998 200.6288 0063473 256.1952 103.1873  2.00552652 89774",
    	"GPS BIIA-20 (PRN 07)    ",
    	"1 22657U 93032A   06159.45662205  .00000097  00000-0  10000-3 0  8809",
    	"2 22657  53.5897 199.1318 0108685 255.9763 102.9011  2.00545139 92013",
    	"GPS BIIA-28 (PRN 08)    ",
    	"1 25030U 97067A   06160.02163841 -.00000033  00000-0  10000-3 0  6298",
    	"2 25030  55.7659  84.8590 0094091 153.5202 206.9529  2.00569505 62984",
    	"GPS BIIA-21 (PRN 09)    ",
    	"1 22700U 93042A   06160.16127161 -.00000040  00000-0  10000-3 0  2652",
    	"2 22700  55.0523  80.2931 0177431  71.0146 290.8901  2.00568794 94832",
    	"GPS BIIA-26 (PRN 10)    ",
    	"1 23953U 96041A   06159.94109063 -.00000067  00000-0  10000-3 0  1096",
    	"2 23953  55.7924 323.7440 0070402  23.8130 336.5052  2.00570479 72556",
    	"GPS BIIR-03 (PRN 11)    ",
    	"1 25933U 99055A   06160.16199798 -.00000001  00000-0  10000-3 0  2240",
    	"2 25933  51.4013 254.0331 0053752  19.7903 340.4602  2.00560139 48903",
    	"No Satellite(PRN 12)    ",
    	null,
    	null,
    	"GPS BIIR-02 (PRN 13)    ",
    	"1 24876U 97035A   06159.88565351 -.00000070  00000-0  10000-3 0  7128",
    	"2 24876  56.8421  23.9497 0028909  65.0509 295.3084  2.00552447 65081",
    	"GPS BIIR-06 (PRN 14)    ",
    	"1 26605U 00071A   06159.70018489 -.00000072  00000-0  10000-3 0  2194",
    	"2 26605  56.5083  23.1988 0025122 243.8477 115.9496  2.00566906 40863",
    	"GPS BII -09 (PRN 15)     ",
    	"1 20830U 90088A   06159.52460613 -.00000027  00000-0  10000-3 0  8551",
    	"2 20830  54.8153 266.7954 0096163 151.7340 208.8101  2.00561370115164",
    	"GPS BIIR-08 (PRN 16)    ",
    	"1 27663U 03005A   06159.42168486  .00000086  00000-0  10000-3 0  4940",
    	"2 27663  55.1382 143.0478 0037291 307.5488  52.1083  2.00558101 24630",
    	"GPS BIIM-01 (PRN 17)   ",
    	"1 28874U 05038A   06160.19498561  .00000099  00000-0  10000-3 0  1636",
    	"2 28874  55.0136 202.5303 0020030 178.9114 181.1811  2.00561719  5177",
    	"GPS BIIR-07 (PRN 18)    ",
    	"1 26690U 01004A   06159.56828901 -.00000070  00000-0  10000-3 0  1240",
    	"2 26690  54.8817 324.9951 0071534 207.2057 152.4158  2.00562304 39273",
    	"GPS BIIR-11 (PRN 19)    ",
    	"1 28190U 04009A   06160.06089624  .00000094  00000-0  10000-3 0  9358",
    	"2 28190  54.8965 205.9405 0037468 285.9584  73.7206  2.00571188 16300",
    	"GPS BIIR-04 (PRN 20)    ",
    	"1 26360U 00025A   06159.76408586 -.00000069  00000-0  10000-3 0  3016",
    	"2 26360  54.8627 321.9511 0027117  77.6331 282.6655  2.00555005 44596",
    	"GPS BIIR-09 (PRN 21)    ",
    	"1 27704U 03010A   06159.49062146 -.00000025  00000-0  10000-3 0  3498",
    	"2 27704  54.0426 264.6620 0112749 190.6837 169.0978  2.00558391 23410",
    	"GPS BIIR-10 (PRN 22)    ",
    	"1 28129U 03058A   06159.61610547 -.00000070  00000-0  10000-3 0   262",
    	"2 28129  54.7410 325.4570 0048229 265.7157  93.7320  2.00562628 18126",
    	"GPS BIIR-12 (PRN 23)    ",
    	"1 28361U 04023A   06159.84371537 -.00000073  00000-0  10000-3 0  7834",
    	"2 28361  55.4912  22.4068 0043309 140.8360 219.5343  2.00552847 14387",
    	"GPS BIIA-11 (PRN 24)    ",
    	"1 21552U 91047A   06160.26264385 -.00000017  00000-0  10000-3 0   584",
    	"2 21552  54.9938 265.4150 0092117 306.3176  52.8556  2.00541064109366",
    	"GPS BIIA-12 (PRN 25)    ",
    	"1 21890U 92009A   06159.81555666 -.00000045  00000-0  10000-3 0   246",
    	"2 21890  54.6726  77.1771 0128266 282.8919  75.6774  2.00553284104725",
    	"GPS BIIA-14 (PRN 26)    ",
    	"1 22014U 92039A   06159.55389805 -.00000072  00000-0  10000-3 0  7886",
    	"2 22014  56.7323  24.0079 0172282  44.7180 316.7179  2.00563185 95485",
    	"GPS BIIA-15 (PRN 27)    ",
    	"1 22108U 92058A   06159.97979395 -.00000042  00000-0  10000-3 0  7894",
    	"2 22108  54.9330  78.9979 0200743 250.4541 107.3692  2.00567339100672",
    	"GPS BIIR-05 (PRN 28)    ",
    	"1 26407U 00040A   06160.09977056  .00000083  00000-0  10000-3 0  2481",
    	"2 26407  55.0287 143.5646 0116264 232.2011 126.7355  2.00563962 43276",
    	"GPS BIIA-17 (PRN 29)    ",
    	"1 22275U 92089A   06159.53747891 -.00000073  00000-0  10000-3 0  6511",
    	"2 22275  56.5395  22.0249 0095776 307.8452  51.3483  2.00559138 98650",
    	"GPS BIIA-27 (PRN 30)    ",
    	"1 24320U 96056A   06160.29474624  .00000075  00000-0  10000-3 0  9321",
    	"2 24320  54.1250 140.4393 0087077  73.6241 287.3212  2.00555079 71226"
    };
    EarthSatSGP4[] PRN=new EarthSatSGP4[31];
    for(int i=1;i<=30;i++) {
      if(TLE[(i-1)*3+1]!=null) {
    	PRN[i]=new EarthSatSGP4(TLE[(i-1)*3+1],TLE[(i-1)*3+2]);
    	System.out.println(PRN[i]);
    	System.out.println(PRN[i].getStateTime(T));
      }
    }
  }
}
